ONEWEB-0331             
1 49198U 21083N   24199.49122484  .00000084  00000+0  17908-3 0  9993
2 49198  87.9151 114.7508 0002008  83.5558 276.5803 13.18684596139076
ONEWEB-0333             
1 49199U 21083P   24199.44928309 -.00000254  00000+0 -73023-3 0  9990
2 49199  87.8927  99.5350 0001921  72.6864 287.4475 13.13471147140343
ONEWEB-0334             
1 49200U 21083Q   24199.57234187  .00000019  00000+0  15720-4 0  9999
2 49200  87.9181  53.6638 0002631  63.6564 296.4840 13.20855464145735
ONEWEB-0335             
1 49201U 21083R   24199.44451317 -.00000473  00000+0 -13292-2 0  9998
2 49201  87.8928  99.5246 0001733  78.9023 281.2301 13.13469681140350
ONEWEB-0336             
1 49202U 21083S   24199.49056147  .00000334  00000+0  87914-3 0  9993
2 49202  87.8926  99.5115 0002016  75.3427 284.7925 13.13470834140361
ONEWEB-0337             
1 49203U 21083T   24199.42375688  .00000102  00000+0  24520-3 0  9998
2 49203  87.8928  99.5234 0001838  79.4646 280.6690 13.13468918140358
ONEWEB-0338             
1 49204U 21083U   24198.59423221 -.00000034  00000+0 -11532-3 0  9998
2 49204  87.9188  53.8443 0001717  70.0731 290.0587 13.20769440145639
ONEWEB-0339             
1 49205U 21083V   24199.43499384 -.00000156  00000+0 -46313-3 0  9996
2 49205  87.8926  99.5159 0001763  77.1634 282.9692 13.13469886140333
